{"fetched_at":"2026-03-29T16:36:15Z","count":15609,"tles":[{"name":"STARLINK-30711","line1":"1 57940U 23148F   26087.85943985  .00001639  00000+0  67460-4 0  9992","line2":"2 57940  53.1585 295.4270 0000910  83.4765 276.6339 15.30199702141353","category":"Starlink"}]}