{
  "norad_id": 57940,
  "name": "STARLINK-30711",
  "history": [
    {
      "epoch": "2026-03-28T20:37:35.603040",
      "apogee_km": 475.8396828465693,
      "perigee_km": 474.5922355409375,
      "latitude_deg": 16.57926851843368,
      "longitude_deg": 56.50622559990734,
      "semi_major_axis_km": 6853.352959193753,
      "eccentricity": 9.101e-05,
      "inclination_deg": 53.1585,
      "raan_deg": 295.427,
      "arg_perigee_deg": 83.4765,
      "mean_anomaly_deg": 276.6339,
      "mean_motion_rev_day": 15.30199702
    }
  ]
}